NORAD_CAT_ID,OBJECT_NAME,OBJECT_TYPE,EPOCH,MEAN_MOTION,ECCENTRICITY,INCLINATION,RA_OF_ASC_NODE,ARG_OF_PERICENTER,MEAN_ANOMALY,BSTAR,MEAN_MOTION_DOT,MEAN_MOTION_DDOT,TLE_LINE0,TLE_LINE1,TLE_LINE2,SEMIMAJOR_AXIS,PERIOD,APOGEE,PERIGEE,DECAYED
52367.0,STARLINK-3817,PAYLOAD,2022-09-30 11:20:36,15.08834616,0.0002189,53.2159,68.4921,39.6337,320.4815,7.1034e-05,8.42e-06,0.0,0 STARLINK-3817,1 52367U 22045AN  22273.47264517  .00000842  00000-0  71034-4 0  9991,2 52367  53.2159  68.4921 0002189  39.6337 320.4815 15.08834616 26273,6917.897,95.438,541.276,538.248,0.0
52367.0,STARLINK-3817,PAYLOAD,2022-09-30 12:55:59,15.08837139,0.0002154999999999,53.216,68.1947,41.0019,319.1135,9.0636e-05,1.154e-05,0.0,0 STARLINK-3817,1 52367U 22045AN  22273.53888336  .00001154  00000-0  90636-4 0  9995,2 52367  53.2160  68.1947 0002155  41.0019 319.1135 15.08837139 26281,6917.889,95.438,541.245,538.263,0.0
52367.0,STARLINK-3817,PAYLOAD,2022-09-30 17:42:08,15.08841936,0.0002164,53.216,67.3027,40.6508,319.4646,0.00012947,1.773e-05,0.0,0 STARLINK-3817,1 52367U 22045AN  22273.73759970  .00001773  00000-0  12947-3 0  9993,2 52367  53.2160  67.3027 0002164  40.6508 319.4646 15.08841936 26313,6917.874,95.437,541.236,538.242,0.0
52367.0,STARLINK-3817,PAYLOAD,2022-10-01 12:46:46,15.08836502,0.0002258,53.2159,63.7341,42.3118,317.8048,0.00015618,2.198e-05,0.0,0 STARLINK-3817,1 52367U 22045AN  22274.53248300  .00002198  00000-0  15618-3 0  9992,2 52367  53.2159  63.7341 0002258  42.3118 317.8048 15.08836502 26434,6917.891,95.438,541.318,538.194,0.0
52367.0,STARLINK-3817,PAYLOAD,2022-10-01 17:32:55,15.08838438,0.00022,53.2161,62.8422,41.0578,319.0579,0.00016608,2.356e-05,0.0,0 STARLINK-3817,1 52367U 22045AN  22274.73120196  .00002356  00000-0  16608-3 0  9992,2 52367  53.2161  62.8422 0002200  41.0578 319.0579 15.08838438 26466,6917.885,95.438,541.2719999999998,538.2280000000002,0.0
52367.0,STARLINK-3817,PAYLOAD,2022-10-02 04:40:38,15.08836513,0.0002226,53.2164,60.7603,41.7863,318.3299,6.8913e-05,8.09e-06,0.0,0 STARLINK-3817,1 52367U 22045AN  22275.19488775  .00000809  00000-0  68913-4 0  9991,2 52367  53.2164  60.7603 0002226  41.7863 318.3299 15.08836513 26530,6917.891,95.438,541.2959999999998,538.216,0.0
52367.0,STARLINK-3817,PAYLOAD,2022-10-02 17:23:42,15.08854099,0.000225,53.2162,58.3813,45.1495,314.968,0.00016584,2.353e-05,0.0,0 STARLINK-3817,1 52367U 22045AN  22275.72479484  .00002353  00000-0  16584-3 0  9999,2 52367  53.2162  58.3813 0002250  45.1495 314.9680 15.08854099 26614,6917.837,95.437,541.259,538.146,0.0
52367.0,STARLINK-3817,PAYLOAD,2022-10-03 02:56:01,15.08847511,0.0002423,53.2168,56.5978,45.8181,314.301,0.00011299,1.511e-05,0.0,0 STARLINK-3817,1 52367U 22045AN  22276.12223856  .00001511  00000-0  11299-3 0  9997,2 52367  53.2168  56.5978 0002423  45.8181 314.3010 15.08847511 26671,6917.857,95.437,541.399,538.0459999999998,0.0
52367.0,STARLINK-3817,PAYLOAD,2022-10-03 09:17:34,15.08838906,0.0002528,53.2169,55.4086,44.5635,315.556,0.00066389,0.00010293,0.0,0 STARLINK-3817,1 52367U 22045AN  22276.38720548  .00010293  00000-0  66389-3 0  9992,2 52367  53.2169  55.4086 0002528  44.5635 315.5560 15.08838906 26712,6917.884,95.438,541.498,538.0,0.0
52367.0,STARLINK-3817,PAYLOAD,2022-10-03 12:28:19,15.08857121,0.0002411,53.2157,54.8132,41.9952,318.1224,0.00027132,4.034e-05,0.0,0 STARLINK-3817,1 52367U 22045AN  22276.51967173  .00004034  00000-0  27132-3 0  9993,2 52367  53.2157  54.8132 0002411  41.9952 318.1224 15.08857121 26736,6917.828,95.436,541.361,538.025,0.0
52367.0,STARLINK-3817,PAYLOAD,2022-10-03 18:49:51,15.08859991,0.0002419,53.216,53.6257,32.8762,327.2381,0.00028573,4.265e-05,0.0,0 STARLINK-3817,1 52367U 22045AN  22276.78462733  .00004265  00000-0  28573-3 0  9990,2 52367  53.2160  53.6257 0002419  32.8762 327.2381 15.08859991 26777,6917.819,95.436,541.3580000000002,538.011,0.0
52367.0,STARLINK-3817,PAYLOAD,2022-10-04 12:19:06,15.08847902,0.0002203,53.2155,50.3516,41.4575,318.6584,5.9022e-05,6.51e-06,0.0,0 STARLINK-3817,1 52367U 22045AN  22277.51326931  .00000651  00000-0  59022-4 0  9990,2 52367  53.2155  50.3516 0002203  41.4575 318.6584 15.08847902 26882,6917.856,95.437,541.245,538.197,0.0
52367.0,STARLINK-3817,PAYLOAD,2022-10-04 15:29:52,15.08847422,0.0002231999999999,53.216,49.7576,39.1201,320.9952,6.1018e-05,6.83e-06,0.0,0 STARLINK-3817,1 52367U 22045AN  22277.64574876  .00000683  00000-0  61018-4 0  9990,2 52367  53.2160  49.7576 0002232  39.1201 320.9952 15.08847422 26903,6917.858,95.437,541.2669999999998,538.179,0.0
52367.0,STARLINK-3817,PAYLOAD,2022-10-05 04:12:58,15.08841642,0.0002213,53.2173,47.3793,38.6566,321.4584,2.9876e-05,1.87e-06,0.0,0 STARLINK-3817,1 52367U 22045AN  22278.17567163  .00000187  00000-0  29876-4 0  9995,2 52367  53.2173  47.3793 0002213  38.6566 321.4584 15.08841642 26982,6917.875,95.437,541.271,538.2090000000002,0.0
52367.0,STARLINK-3817,PAYLOAD,2022-10-05 12:09:53,15.08843955,0.0002157,53.2169,45.8916,39.7334,320.3816,-4.8512e-05,-1.06e-05,0.0,0 STARLINK-3817,1 52367U 22045AN  22278.50687115 -.00001060  00000-0 -48512-4 0  9993,2 52367  53.2169  45.8916 0002157  39.7334 320.3816 15.08843955 27031,6917.868,95.437,541.225,538.241,0.0
52367.0,STARLINK-3817,PAYLOAD,2022-10-05 15:20:40,15.08839113,0.0002236,53.217,45.2977,37.5718,322.543,-8.0126e-05,-1.563e-05,0.0,0 STARLINK-3817,1 52367U 22045AN  22278.63935505 -.00001563  00000-0 -80126-4 0  9991,2 52367  53.2170  45.2977 0002236  37.5718 322.5430 15.08839113 27053,6917.8830000000025,95.438,541.295,538.201,0.0
52367.0,STARLINK-3817,PAYLOAD,2022-10-06 12:00:41,15.08829697,0.0002349,53.2172,41.4324,36.1442,323.9709,3.6834e-05,2.98e-06,0.0,0 STARLINK-3817,1 52367U 22045AN  22279.50048136  .00000298  00000-0  36834-4 0  9992,2 52367  53.2172  41.4324 0002349  36.1442 323.9709 15.08829697 27187,6917.9119999999975,95.438,541.4019999999998,538.1519999999998,0.0
52367.0,STARLINK-3817,PAYLOAD,2022-10-06 15:11:27,15.0883459,0.0002379999999999,53.217,40.8372,36.5556,323.5598,7.6505e-05,9.29e-06,0.0,0 STARLINK-3817,1 52367U 22045AN  22279.63295764  .00000929  00000-0  76505-4 0  9997,2 52367  53.2170  40.8372 0002380  36.5556 323.5598 15.08834590 27209,6917.897,95.438,541.408,538.115,0.0
52367.0,STARLINK-3817,PAYLOAD,2022-10-07 10:16:04,15.08842835,0.0002256999999999,53.2171,37.2681,36.057,324.0574,0.00013086,1.795e-05,0.0,0 STARLINK-3817,1 52367U 22045AN  22280.42782992  .00001795  00000-0  13086-3 0  9996,2 52367  53.2171  37.2681 0002257  36.0570 324.0574 15.08842835 27321,6917.871999999999,95.437,541.298,538.175,0.0
52367.0,STARLINK-3817,PAYLOAD,2022-10-07 13:26:50,15.08842763,0.000218,53.2173,36.6729,36.074,324.0399,0.00013296,1.829e-05,0.0,0 STARLINK-3817,1 52367U 22045AN  22280.56031166  .00001829  00000-0  13296-3 0  9992,2 52367  53.2173  36.6729 0002180  36.0740 324.0399 15.08842763 27340,6917.871999999999,95.437,541.245,538.229,0.0
52367.0,STARLINK-3817,PAYLOAD,2022-10-08 02:09:56,15.08830213,0.0002348,53.217,34.2955,33.0189,327.0949,9.0106e-05,1.146e-05,0.0,0 STARLINK-3817,1 52367U 22045AN  22281.09024195  .00001146  00000-0  90106-4 0  9993,2 52367  53.2170  34.2955 0002348  33.0189 327.0949 15.08830213 27422,6917.91,95.438,541.4,538.151,0.0
52367.0,STARLINK-3817,PAYLOAD,2022-10-08 11:42:16,15.08826256,0.0002314,53.217,32.5106,33.2292,326.8845,-2.0353e-06,-3.21e-06,0.0,0 STARLINK-3817,1 52367U 22045AN  22281.48769059 -.00000321  00000-0 -20353-5 0  9995,2 52367  53.2170  32.5106 0002314  33.2292 326.8845 15.08826256 27481,6917.922,95.438,541.388,538.187,0.0
52367.0,STARLINK-3817,PAYLOAD,2022-10-08 13:17:39,15.08827316,0.0002376,53.217,32.2132,32.3952,327.7186,-3.3672e-06,-3.42e-06,0.0,0 STARLINK-3817,1 52367U 22045AN  22281.55393085 -.00000342  00000-0 -33672-5 0  9996,2 52367  53.2170  32.2132 0002376  32.3952 327.7186 15.08827316 27495,6917.919,95.438,541.428,538.14,0.0
52367.0,STARLINK-3817,PAYLOAD,2022-10-08 14:53:02,15.08829696,0.0002362,53.2172,31.9158,32.0843,328.0293,2.3085e-05,7.9e-07,0.0,0 STARLINK-3817,1 52367U 22045AN  22281.62016894  .00000079  00000-0  23085-4 0  9995,2 52367  53.2172  31.9158 0002362  32.0843 328.0293 15.08829696 27500,6917.9119999999975,95.438,541.411,538.143,0.0
52367.0,STARLINK-3817,PAYLOAD,2022-10-09 02:00:43,15.08844151,0.0001855999999999,53.2176,29.8328,36.1761,323.9356,3.4759000000000004e-05,2.65e-06,0.0,0 STARLINK-3817,1 52367U 22045AN  22282.08383792  .00000265  00000-0  34759-4 0  9997,2 52367  53.2176  29.8328 0001856  36.1761 323.9356 15.08844151 27574,6917.868,95.437,541.0169999999998,538.4490000000002,0.0
52367.0,STARLINK-3817,PAYLOAD,2022-10-09 13:08:25,15.08845618,0.0002013,53.2173,27.7512,34.0813,326.0308,6.6081e-05,7.64e-06,0.0,0 STARLINK-3817,1 52367U 22045AN  22282.54751584  .00000764  00000-0  66081-4 0  9993,2 52367  53.2173  27.7512 0002013  34.0813 326.0308 15.08845618 27642,6917.863,95.437,541.121,538.336,0.0
52367.0,STARLINK-3817,PAYLOAD,2022-10-09 14:43:48,15.08862105,0.0002181,53.2171,27.4554,29.8363,330.2753,-0.00017645,-3.097e-05,0.0,0 STARLINK-3817,1 52367U 22045AN  22282.61375154 -.00003097  00000-0 -17645-3 0  9991,2 52367  53.2171  27.4554 0002181  29.8363 330.2753 15.08862105 27653,6917.813,95.436,541.187,538.169,0.0
52367.0,STARLINK-3817,PAYLOAD,2022-10-10 06:37:40,15.0883432,0.0002396,53.2175,24.4817,26.3654,333.746,0.00016356,2.315e-05,0.0,0 STARLINK-3817,1 52367U 22045AN  22283.27615877  .00002315  00000-0  16356-3 0  9991,2 52367  53.2175  24.4817 0002396  26.3654 333.7460 15.08834320 27751,6917.898,95.438,541.42,538.105,0.0
52367.0,STARLINK-3817,PAYLOAD,2022-10-10 12:59:12,15.08837974,0.0002411999999999,53.2176,23.2928,28.5164,331.596,0.00015875,2.239e-05,0.0,0 STARLINK-3817,1 52367U 22045AN  22283.54111605  .00002239  00000-0  15875-3 0  9991,2 52367  53.2176  23.2928 0002412  28.5164 331.5960 15.08837974 27794,6917.887,95.438,541.42,538.0830000000002,0.0
